NORAD_CAT_ID,OBJECT_NAME,OBJECT_TYPE,EPOCH,MEAN_MOTION,ECCENTRICITY,INCLINATION,RA_OF_ASC_NODE,ARG_OF_PERICENTER,MEAN_ANOMALY,BSTAR,MEAN_MOTION_DOT,MEAN_MOTION_DDOT,TLE_LINE0,TLE_LINE1,TLE_LINE2,SEMIMAJOR_AXIS,PERIOD,APOGEE,PERIGEE,DECAYED
52311.0,STARLINK-3750,PAYLOAD,2023-01-08 01:51:34,15.08823623,0.0003141,53.2167,241.3511,24.9401,335.1743,0.00017025,2.421e-05,0.0,0 STARLINK-3750,1 52311U 22041BC  23008.07748234  .00002421  00000-0  17025-3 0  9996,2 52311  53.2167 241.3511 0003141  24.9401 335.1743 15.08823623 41250,6917.93,95.439,541.9680000000002,537.623,0.0
52311.0,STARLINK-3750,PAYLOAD,2023-01-08 14:34:39,15.08832899,0.0003136,53.2167,238.9724,25.3404,334.7741,0.00030744,4.607e-05,0.0,0 STARLINK-3750,1 52311U 22041BC  23008.60740426  .00004607  00000-0  30744-3 0  9991,2 52311  53.2167 238.9724 0003136  25.3404 334.7741 15.08832899 41337,6917.901999999999,95.438,541.937,537.5980000000002,0.0
52311.0,STARLINK-3750,PAYLOAD,2023-01-08 16:10:02,15.08836401,0.0003157,53.2162,238.6752,25.5749,334.5399,0.00036089,5.459e-05,0.0,0 STARLINK-3750,1 52311U 22041BC  23008.67364353  .00005459  00000-0  36089-3 0  9993,2 52311  53.2162 238.6752 0003157  25.5749 334.5399 15.08836401 41348,6917.891,95.438,541.94,537.572,0.0
52311.0,STARLINK-3750,PAYLOAD,2023-01-09 00:06:58,15.0884669,0.0003177,53.2162,237.1884,26.3028,333.8125,0.00051166,7.866e-05,0.0,0 STARLINK-3750,1 52311U 22041BC  23009.00484147  .00007866  00000-0  51166-3 0  9992,2 52311  53.2162 237.1884 0003177  26.3028 333.8125 15.08846690 41394,6917.86,95.437,541.923,537.5269999999998,0.0
52311.0,STARLINK-3750,PAYLOAD,2023-01-09 16:00:49,15.08860686,0.0003213,53.2157,234.2146,27.0696,333.0464,0.00057635,8.902e-05,0.0,0 STARLINK-3750,1 52311U 22041BC  23009.66723423  .00008902  00000-0  57635-3 0  9996,2 52311  53.2157 234.2146 0003213  27.0696 333.0464 15.08860686 41497,6917.816999999999,95.436,541.905,537.4590000000002,0.0
52311.0,STARLINK-3750,PAYLOAD,2023-01-10 14:16:12,15.08852632,0.0003253999999999,53.2143,230.0514,28.0622,332.0545,0.00011695,1.574e-05,0.0,0 STARLINK-3750,1 52311U 22041BC  23010.59458892  .00001574  00000-0  11695-3 0  9999,2 52311  53.2143 230.0514 0003254  28.0622 332.0545 15.08852632 41637,6917.842,95.437,541.9580000000002,537.456,0.0
52311.0,STARLINK-3750,PAYLOAD,2023-01-11 07:45:24,15.08884296,0.0002669,53.2172,226.7813,338.4312,21.6567,0.00060473,9.361e-05,0.0,0 STARLINK-3750,1 52311U 22041BC  23011.32320209  .00009361  00000-0  60473-3 0  9991,2 52311  53.2172 226.7813 0002669 338.4312  21.6567 15.08884296 41744,6917.745,95.435,541.456,537.764,0.0
52311.0,STARLINK-3750,PAYLOAD,2023-01-11 17:17:44,15.0885679,0.0003099,53.2141,224.9955,33.3818,326.7369,0.00017286,2.465e-05,0.0,0 STARLINK-3750,1 52311U 22041BC  23011.72065683  .00002465  00000-0  17286-3 0  9999,2 52311  53.2141 224.9955 0003099  33.3818 326.7369 15.08856790 41801,6917.8290000000015,95.436,541.8380000000002,537.55,0.0
52311.0,STARLINK-3750,PAYLOAD,2023-01-11 20:28:30,15.08856756,0.0003149,53.2141,224.4007,34.2699,325.8496,0.00015983,2.257e-05,0.0,0 STARLINK-3750,1 52311U 22041BC  23011.85313576  .00002257  00000-0  15983-3 0  9991,2 52311  53.2141 224.4007 0003149  34.2699 325.8496 15.08856756 41822,6917.8290000000015,95.436,541.873,537.516,0.0
52311.0,STARLINK-3750,PAYLOAD,2023-01-11 23:39:17,15.08842253,0.0003191,53.2162,223.8079,24.1503,335.9638,-0.00010935,-2.029e-05,0.0,0 STARLINK-3750,1 52311U 22041BC  23011.98562101 -.00002029  00000-0 -10935-3 0  9996,2 52311  53.2162 223.8079 0003191  24.1503 335.9638 15.08842253 41845,6917.874,95.437,541.946,537.531,0.0
52311.0,STARLINK-3750,PAYLOAD,2023-01-12 20:19:18,15.0883896,0.00032,53.217,219.9413,24.8477,335.2669,-3.7043e-05,-8.78e-06,0.0,0 STARLINK-3750,1 52311U 22041BC  23012.84674421 -.00000878  00000-0 -37043-4 0  9991,2 52311  53.2170 219.9413 0003200  24.8477 335.2669 15.08838960 41971,6917.884,95.438,541.962,537.535,0.0
52311.0,STARLINK-3750,PAYLOAD,2023-01-13 09:02:23,15.08839797,0.0003314,53.2141,217.5618,34.3554,325.7652,-0.0001730999999999,-3.043e-05,0.0,0 STARLINK-3750,1 52311U 22041BC  23013.37666536 -.00003043  00000-0 -17310-3 0  9999,2 52311  53.2141 217.5618 0003314  34.3554 325.7652 15.08839797 42053,6917.880999999999,95.438,542.039,537.453,0.0
52311.0,STARLINK-3750,PAYLOAD,2023-01-13 20:10:06,15.08827439,0.0003032,53.2161,215.481,29.8274,330.2891,-2.6383e-05,-7.08e-06,0.0,0 STARLINK-3750,1 52311U 22041BC  23013.84035489 -.00000708  00000-0 -26383-4 0  9994,2 52311  53.2161 215.4810 0003032  29.8274 330.2891 15.08827439 42125,6917.919,95.438,541.881,537.686,0.0
52311.0,STARLINK-3750,PAYLOAD,2023-01-14 20:00:54,15.08835902,0.0003134,53.2161,211.0205,32.5235,327.595,0.00023808,3.502e-05,0.0,0 STARLINK-3750,1 52311U 22041BC  23014.83396015  .00003502  00000-0  23808-3 0  9990,2 52311  53.2161 211.0205 0003134  32.5235 327.5950 15.08835902 42271,6917.893,95.438,541.9259999999999,537.59,0.0
52311.0,STARLINK-3750,PAYLOAD,2023-01-15 11:54:45,15.08833953,0.0003141,53.2162,208.047,33.8575,326.2617,0.00020204,2.928e-05,0.0,0 STARLINK-3750,1 52311U 22041BC  23015.49636521  .00002928  00000-0  20204-3 0  9990,2 52311  53.2162 208.0470 0003141  33.8575 326.2617 15.08833953 42372,6917.899,95.438,541.937,537.591,0.0
52311.0,STARLINK-3750,PAYLOAD,2023-01-15 19:51:41,15.08838072,0.0003146,53.2162,206.5602,34.6001,325.5196,0.00023709,3.487e-05,0.0,0 STARLINK-3750,1 52311U 22041BC  23015.82756494  .00003487  00000-0  23709-3 0  9993,2 52311  53.2162 206.5602 0003146  34.6001 325.5196 15.08838072 42427,6917.886,95.438,541.928,537.575,0.0
52311.0,STARLINK-3750,PAYLOAD,2023-01-16 05:24:00,15.08840043,0.0003147,53.2162,204.7762,35.3253,324.7947,0.00020009,2.897e-05,0.0,0 STARLINK-3750,1 52311U 22041BC  23016.22500535  .00002897  00000-0  20009-3 0  9995,2 52311  53.2162 204.7762 0003147  35.3253 324.7947 15.08840043 42484,6917.88,95.438,541.922,537.568,0.0
52311.0,STARLINK-3750,PAYLOAD,2023-01-16 11:45:33,15.08837999,0.000312,53.2161,203.5867,36.3542,323.7661,0.00013384,1.842e-05,0.0,0 STARLINK-3750,1 52311U 22041BC  23016.48996648  .00001842  00000-0  13384-3 0  9994,2 52311  53.2161 203.5867 0003120  36.3542 323.7661 15.08837999 42522,6917.887,95.438,541.91,537.5930000000001,0.0
52311.0,STARLINK-3750,PAYLOAD,2023-01-16 18:07:05,15.0883805,0.0003131,53.2161,202.3974,36.8925,323.2282,0.00010023,1.307e-05,0.0,0 STARLINK-3750,1 52311U 22041BC  23016.75492684  .00001307  00000-0  10023-3 0  9998,2 52311  53.2161 202.3974 0003131  36.8925 323.2282 15.08838050 42567,6917.886,95.438,541.9169999999999,537.585,0.0
52311.0,STARLINK-3750,PAYLOAD,2023-01-17 13:11:43,15.0883457,0.000307,53.2162,198.8287,40.7311,319.391,4.7376e-05,4.65e-06,0.0,0 STARLINK-3750,1 52311U 22041BC  23017.54981066  .00000465  00000-0  47376-4 0  9999,2 52311  53.2162 198.8287 0003070  40.7311 319.3910 15.08834570 42689,6917.897,95.438,541.886,537.638,0.0
52311.0,STARLINK-3750,PAYLOAD,2023-01-17 21:08:39,15.08839801,0.0003168999999999,53.2166,197.3416,43.4326,316.6915,0.00012773,1.745e-05,0.0,0 STARLINK-3750,1 52311U 22041BC  23017.88100901  .00001745  00000-0  12773-3 0  9991,2 52311  53.2166 197.3416 0003169  43.4326 316.6915 15.08839801 42739,6917.880999999999,95.438,541.938,537.554,0.0
52311.0,STARLINK-3750,PAYLOAD,2023-01-18 11:27:07,15.08840874,0.0003082,53.2157,194.6651,43.3944,316.72900000000004,0.00014099,1.956e-05,0.0,0 STARLINK-3750,1 52311U 22041BC  23018.47716942  .00001956  00000-0  14099-3 0  9992,2 52311  53.2157 194.6651 0003082  43.3944 316.7290 15.08840874 42828,6917.878000000001,95.437,541.875,537.611,0.0
52311.0,STARLINK-3750,PAYLOAD,2023-01-18 17:48:39,15.08844816,0.0003002,53.216,193.4757,43.7343,316.3887,0.00018485,2.655e-05,0.0,0 STARLINK-3750,1 52311U 22041BC  23018.74212749  .00002655  00000-0  18485-3 0  9998,2 52311  53.2160 193.4757 0003002  43.7343 316.3887 15.08844816 42867,6917.866,95.437,541.807,537.654,0.0
52311.0,STARLINK-3750,PAYLOAD,2023-01-19 12:53:17,15.0883878,0.0002931,53.2156,189.9065,49.6715,310.4533,5.2016000000000005e-05,5.39e-06,0.0,0 STARLINK-3750,1 52311U 22041BC  23019.53701097  .00000539  00000-0  52016-4 0  9993,2 52311  53.2156 189.9065 0002931  49.6715 310.4533 15.08838780 42981,6917.884,95.438,541.7769999999999,537.721,0.0
52311.0,STARLINK-3750,PAYLOAD,2023-01-19 14:28:40,15.0883956,0.0002861,53.2159,189.6093,49.1115,311.0125,4.8303e-05,4.8e-06,0.0,0 STARLINK-3750,1 52311U 22041BC  23019.60325027  .00000480  00000-0  48303-4 0  9995,2 52311  53.2159 189.6093 0002861  49.1115 311.0125 15.08839560 42995,6917.882,95.438,541.726,537.768,0.0
52311.0,STARLINK-3750,PAYLOAD,2023-01-19 17:39:26,15.08842393,0.0002823,53.2175,189.015,48.2211,311.9022,6.633e-05,7.67e-06,0.0,0 STARLINK-3750,1 52311U 22041BC  23019.73572901  .00000767  00000-0  66330-4 0  9992,2 52311  53.2175 189.0150 0002823  48.2211 311.9022 15.08842393 43013,6917.8730000000005,95.437,541.691,537.785,0.0
52311.0,STARLINK-3750,PAYLOAD,2023-01-20 17:30:13,15.08847025,0.0002995,53.2174,184.5554,49.8311,310.2943,0.00011606,1.559e-05,0.0,0 STARLINK-3750,1 52311U 22041BC  23020.72932438  .00001559  00000-0  11606-3 0  9993,2 52311  53.2174 184.5554 0002995  49.8311 310.2943 15.08847025 43165,6917.859,95.437,541.7959999999999,537.6519999999999,0.0
52311.0,STARLINK-3750,PAYLOAD,2023-01-21 10:59:29,15.08825758,0.0002921,53.2193,181.2871,47.9957,312.1283,0.00017413,2.483e-05,0.0,0 STARLINK-3750,1 52311U 22041BC  23021.45797720  .00002483  00000-0  17413-3 0  9996,2 52311  53.2193 181.2871 0002921  47.9957 312.1283 15.08825758 43275,6917.924,95.438,541.81,537.768,0.0
52311.0,STARLINK-3750,PAYLOAD,2023-01-21 17:21:01,15.08840322,0.0002894,53.2172,180.0945,50.256,309.8686,0.00011795,1.589e-05,0.0,0 STARLINK-3750,1 52311U 22041BC  23021.72292922  .00001589  00000-0  11795-3 0  9993,2 52311  53.2172 180.0945 0002894  50.2560 309.8686 15.08840322 43316,6917.879,95.438,541.746,537.742,0.0
